[{"OBJECT_NAME":"STARLINK-32449","OBJECT_ID":"2024-193K","EPOCH":"2026-03-09T11:28:23.328192","MEAN_MOTION":15.30175539,"ECCENTRICITY":8.438e-5,"INCLINATION":53.1602,"RA_OF_ASC_NODE":92.0291,"ARG_OF_PERICENTER":77.9041,"MEAN_ANOMALY":282.2055,"EPHEMERIS_TYPE":0,"CLASSIFICATION_TYPE":"U","NORAD_CAT_ID":61670,"ELEMENT_SET_NO":999,"REV_AT_EPOCH":7649,"BSTAR":-4.6982467e-5,"MEAN_MOTION_DOT":-1.749e-5,"MEAN_MOTION_DDOT":0},{"OBJECT_NAME":"ELECTRON KICK STAGE R\/B","OBJECT_ID":"2024-077D","EPOCH":"2026-03-09T23:22:03.772128","MEAN_MOTION":14.57371822,"ECCENTRICITY":0.03475139,"INCLINATION":97.3266,"RA_OF_ASC_NODE":78.5056,"ARG_OF_PERICENTER":202.0113,"MEAN_ANOMALY":156.5853,"EPHEMERIS_TYPE":0,"CLASSIFICATION_TYPE":"U","NORAD_CAT_ID":59590,"ELEMENT_SET_NO":999,"REV_AT_EPOCH":9944,"BSTAR":0.00037103128,"MEAN_MOTION_DOT":3.845e-5,"MEAN_MOTION_DDOT":0}]
